{
    "links": {
        "self": "http://www.neowsapp.com/rest/v1/neo/3698535?api_key=iIulBulltgU6a56xZRHN4H3l9WmuAYTsLGpBGhQ2"
    },
    "id": "3698535",
    "neo_reference_id": "3698535",
    "name": "(2014 HJ198)",
    "designation": "2014 HJ198",
    "nasa_jpl_url": "http://ssd.jpl.nasa.gov/sbdb.cgi?sstr=3698535",
    "absolute_magnitude_h": 26.6,
    "estimated_diameter": {
        "kilometers": {
            "estimated_diameter_min": 0.0127219879,
            "estimated_diameter_max": 0.0284472297
        },
        "meters": {
            "estimated_diameter_min": 12.7219878539,
            "estimated_diameter_max": 28.4472296503
        },
        "miles": {
            "estimated_diameter_min": 0.0079050743,
            "estimated_diameter_max": 0.0176762835
        },
        "feet": {
            "estimated_diameter_min": 41.7388066307,
            "estimated_diameter_max": 93.330808926
        }
    },
    "is_potentially_hazardous_asteroid": false,
    "close_approach_data": [
        {
            "close_approach_date": "2014-04-20",
            "close_approach_date_full": "2014-Apr-20 21:41",
            "epoch_date_close_approach": 1398030060000,
            "relative_velocity": {
                "kilometers_per_second": "22.1086235343",
                "kilometers_per_hour": "79591.0447235588",
                "miles_per_hour": "49454.7799839247"
            },
            "miss_distance": {
                "astronomical": "0.008335489",
                "lunar": "3.242505221",
                "kilometers": "1246971.39980843",
                "miles": "774832.098399134"
            },
            "orbiting_body": "Earth"
        },
        {
            "close_approach_date": "2014-04-20",
            "close_approach_date_full": "2014-Apr-20 22:57",
            "epoch_date_close_approach": 1398034620000,
            "relative_velocity": {
                "kilometers_per_second": "23.1158270068",
                "kilometers_per_hour": "83216.9772245668",
                "miles_per_hour": "51707.7934315648"
            },
            "miss_distance": {
                "astronomical": "0.0080378888",
                "lunar": "3.1267387432",
                "kilometers": "1202451.043776856",
                "miles": "747168.4319423728"
            },
            "orbiting_body": "Moon"
        }
    ],
    "orbital_data": {
        "orbit_id": "5",
        "orbit_determination_date": "2020-09-22 06:43:44",
        "first_observation_date": "2014-04-24",
        "last_observation_date": "2014-04-27",
        "data_arc_in_days": 3,
        "observations_used": 34,
        "orbit_uncertainty": "9",
        "minimum_orbit_intersection": ".00791243",
        "jupiter_tisserand_invariant": "3.273",
        "epoch_osculation": "2456773.5",
        "eccentricity": ".7420625231412554",
        "semi_major_axis": "2.154413863437581",
        "inclination": "6.055973136977189",
        "ascending_node_longitude": "214.8801855547316",
        "orbital_period": "1155.026981390654",
        "perihelion_distance": ".5557040760445896",
        "perihelion_argument": "262.8650240990665",
        "aphelion_distance": "3.753123650830573",
        "perihelion_time": "2456721.876897864200",
        "mean_anomaly": "16.08994167955493",
        "mean_motion": ".3116810306600454",
        "equinox": "J2000",
        "orbit_class": {
            "orbit_class_type": "APO",
            "orbit_class_description": "Near-Earth asteroid orbits which cross the Earth’s orbit similar to that of 1862 Apollo",
            "orbit_class_range": "a (semi-major axis) > 1.0 AU; q (perihelion) < 1.017 AU"
        }
    },
    "is_sentry_object": false
}